address,city,days_open,latitude,name,state,zip,longitude
5901 Spruce St.,Philadelphia,['Thursday'],39.9565673,59th Street Baptist Church,PA,19143,-75.2400554
1271 E. Maple Ave.,Langhorne,['Thursday'],40.1774272,A Church of Living Hope,PA,19047,-74.914009
100 N. 63rd St.,Philadelphia,['Saturday'],39.964411,Abundant Life Healing Fellowship Church,PA,19139,-75.246505
4202 Germantown Ave.,Philadelphia,['Thursday'],40.0183165,Abyssinian Baptist Church,PA,19144,-75.1557601
212 S. High St.,West Chester,"['Monday', 'Tuesday', 'Wednesday', 'Thursday', 'Friday']",39.95791952,ACT in Faith,PA,19382,-75.60266405
2042 W. Jefferson St.,Philadelphia,['Wednesday'],39.97731131,"Acts Of Kindness, Inc. Food Pantry",PA,19121,-75.16913754
5524 Chester Ave.,Philadelphia,['Wednesday'],39.93820667,African Cultural Alliance of North America,PA,19143,-75.22487067
5911 Larchwood Ave.,Philadelphia,"['Monday', 'Tuesday', 'Wednesday', 'Thursday']",39.953935,Allen African Methodist Episcopal Church Food Pantry,PA,19143,-75.2407034
36 Ardmore Ave.,Ardmore,['Monday'],40.00821025,Ardmore Food Pantry,PA,19003,-75.29399425
1428 Poplar St.,Philadelphia,['Wednesday'],39.9701829,Baptist Women's Center of Phila.,PA,19130,-75.1609083
"5409 Bartram Dr., 2-B",Philadelphia,"['Monday', 'Tuesday', 'Wednesday', 'Thursday', 'Friday']",39.93104266,Bartram Resident Council,PA,19143,-75.21468502
2107 W. Toronto St.,Philadelphia,['Saturday'],40.0008448,"Beloved Baptist Church, Inc. Food Pantry",PA,19132,-75.16502855
400 Ashbourne Rd.,Cheltenham,['Thursday'],40.061155,Berachah Church,PA,19012,-75.098759
2101 N. Broad St.,Philadelphia,"['Wednesday', 'Friday', 'Saturday']",39.98487,Berean Presbyterian Care Closet,PA,19122,-75.1561973
2625 W. 9th St.,Chester,"['Tuesday', 'Wednesday']",39.8368286,Bernardine Center,PA,19013,-75.3934386
575 N. Keim St.,Pottstown,['Monday'],40.24982863,Bethel Community Church of Pottstown,PA,19464,-75.62201684
2901 W. Cheltenham Ave,Wyncote,['Thursday'],40.0760847,Bethel Deliverance International Church,PA,19095,-75.16168807
1900 W. York St.,Philadelphia,['Thursday'],39.99029755,Bethel Presbyterian Church,PA,19132,-75.16385543
169 W. Wyoming Ave.,Philadelphia,['Tuesday'],40.022031,Bethel Seventh Day Adventist Worship Center,PA,19140,-75.127681
228 E. Allegheny Ave.,Philadelphia,['Thursday'],39.998076,Bethel Temple Community Church,PA,19134,-75.126322
2016 W. Berks St.,Philadelphia,"['Monday', 'Tuesday', 'Wednesday', 'Thursday', 'Friday']",39.983009,Bethlehem of Deliverance,PA,19121,-75.16795443
501 Yarnall St.,Chester,['Thursday'],39.8382833,Better Living Center,PA,19013,-75.3838552
5437 Wyalusing Ave.,Philadelphia,['Friday'],39.96926667,Better Tomorrow Haddington Townhouse Food Pantry,PA,19131,-75.2287021
6239 N. 6th St.,Philadelphia,['Wednesday'],40.0491824,Bickley New Beginning United Methodist Church,PA,19126,-75.1297304
521 W. Lehigh Ave.,Philadelphia,['Saturday'],39.9925254,Blessed to be a Blessing (True Vine Baptist Church),PA,19133,-75.14111215
1519 S. 52nd St.,Philadelphia,['Wednesday'],39.93916002,Bountiful Blessing,PA,19143,-75.21712269
2717 Kirkbride St.,Philadelphia,['Tuesday'],40.002465,Bridesburg Community Food Pantry,PA,19137,-75.0684717
1722 W. Ontario St.,Philadelphia,['Thursday'],40.00534209,Bridgeway Inc.,PA,19140,-75.15805979
1601 N. 12th St.,Philadelphia,"['Monday', 'Tuesday', 'Wednesday']",39.9772408,Bright Hope Community Kitchen,PA,19122,-75.1538855
99 Wood St.,Bristol,"['Tuesday', 'Wednesday', 'Thursday', 'Friday']",40.095676,"Bristol Borough Community Action Group, Inc.",PA,19007,-74.858473
1140 S. 19th St.,Philadelphia,['Thursday'],39.93772266,Bryant Baptist Church,PA,19146,-75.17509083
2227 Bryn Mawr Ave.,Philadelphia,"['Monday', 'Thursday']",39.99119207,Bryn Mawr Avenue Church Of God Food Pantry,PA,19131,-75.226466
2155 Milford Square Pk.,Milford Square,['Tuesday'],40.4370696,Bucks County Housing Group Community Food Pantry at Milford Square,PA,18935,-75.3927926
470 Old Dublin Pk.,Doylestown,"['Sunday', 'Wednesday', 'Thursday']",40.33450679,Bucks County Housing Groups Community Food Pantry at Doylestown,PA,18901,-75.14600173
6037 Elmwood Ave.,Philadelphia,"['Thursday', 'Friday']",39.926343,Burning Bush Ministries,PA,19142,-75.224591
6114 Haverford Ave.,Philadelphia,"['Monday', 'Wednesday']",39.9709767,Calvary Agape Community Outreach Services,PA,19151,-75.2413649
7910 Washington Ln.,Wyncote,['Monday'],40.070238,Calvary Assembly of God,PA,19095,-75.155433
1401 N. 60th St.,Philadelphia,['Thursday'],39.9730508,Calvin Presbyterian Church,PA,19151,-75.2394286
1657 Kinsey St.,Philadelphia,['Wednesday'],40.0132486,Campbell AME Church,PA,19124,-75.0847575
5620 Wyalusing Ave.,Philadelphia,['Tuesday'],39.9685902,Camphor MUM Church/Food Cupboard Committee,PA,19131,-75.232889
304 W. School House Ln.,Philadelphia,"['Tuesday', 'Thursday']",40.0287108,Canaan Family Life Center Food and Clothes Program,PA,19144,-75.1780625
4400 N. Reese St.,Philadelphia,"['Monday', 'Tuesday', 'Wednesday']",40.0188324,Casa del Carmen,PA,19140,-75.1350077
2438 Kensington Ave.,Philadelphia,['Open:'],39.9871078,Cast Your Cares Ministry,PA,19125,-75.130833
5818 Germantown Ave.,Philadelphia,"['Monday', 'Tuesday', 'Wednesday', 'Thursday', 'Friday']",40.0365903,Center in the Park,PA,19144,-75.176281
900 W. Airy St.,Norristown,"['Monday', 'Wednesday', 'Thursday']",40.120737,Central Presbyterian Church,PA,19401,-75.355748
4520 Benner Street,Philadelphia,"['Tuesday', 'Thursday']",40.0199517,Centre D'adoration Chretienne,PA,19135,-75.0592082
605 E. Lincoln Highway,Coatesville,"['Monday', 'Tuesday', 'Wednesday', 'Thursday', 'Friday']",39.98488052,Chester County Family Service Center - Coatesville (Catholic Social Services),PA,19320,-75.81276403
125 N. Darlington Street,West Chester,"['Monday', 'Tuesday', 'Wednesday', 'Thursday', 'Friday']",39.96003698,Chester County Family Service Center - West Chester (Catholic Social Services),PA,19380,-75.60811185
105 Prospect Avenue,West Grove,"['Monday', 'Tuesday', 'Wednesday', 'Thursday', 'Friday']",39.82128,Chester County Family Service Center - West Grove (Catholic Social Services),PA,19390,-75.826932
301 E. 9th St.,Chester,"['Monday', 'Friday']",39.8533866,"Chester Eastside, Inc.",PA,19013,-75.3583645
2200 Germantown Ave.,Philadelphia,['Saturday'],39.9848776,"Children's Mission, Inc.",PA,19133,-75.1443334
3006 W. Diamond St.,Philadelphia,['Saturday'],39.98799218,Christ Evangelical Lutheran Church,PA,19121,-75.18263649
7240 Walnut St.,Upper Darby,"['Monday', 'Tuesday', 'Wednesday', 'Thursday', 'Friday']",39.9572035,Christ Lutheran Church,PA,19082,-75.2646805
500 S. 61st St.,Philadelphia,['Saturday'],39.954082,Christ of Calvary Covenant,PA,19143,-75.2446983
14 S. Morton Ave.,Morton,['Saturday'],39.9077355,Christ Tabernacle Church,PA,19070,-75.3280126
465 Main St.,Tullytown,['Open:'],40.14142739,"Christ the King Orthodox Church, Food Pantry",PA,19007,-74.8130195
1020 S. 10th St.,Philadelphia,['Sunday'],39.9375644,Christ's Presbyterian Church,PA,19147,-75.1600766
2071 E. Maple Ave.,Langhorne,['Thursday'],40.1774272,Christian Care,PA,19047,-74.914009
250 Green Ln.,Bristol,['Tuesday'],40.11270169,Christian Care Ministries,PA,19007,-74.83961046
661 N. 39th St.,Philadelphia,"['Monday', 'Wednesday', 'Friday']",39.965029,Church Of New Hope And Faith,PA,19104,-75.199877
1601 W. Dauphin St.,Philadelphia,"['Wednesday', 'Friday']",39.9917266,Church Of Our Lord Jesus Christ Ark Of Deliverance,PA,19132,-75.1857325
2530 Wharton St.,Philadelphia,"['Wednesday', 'Friday', 'Saturday']",39.93647045,Church of Pentecost USA,PA,19146,-75.18631835
260 S. 51st St.,Philadelphia,['Wednesday'],39.95479422,Church of the Holy Apostles and the Mediator,PA,19139,-75.22404374
801 S. 11th St.,Philadelphia,"['Wednesday', 'Friday']",39.939999,Church of the Living God,PA,19147,-75.160676
1440 S. 24th St.,Philadelphia,"['Monday', 'Tuesday', 'Wednesday', 'Thursday', 'Saturday']",39.9340522,Church of the Redeemer Baptist,PA,19146,-75.18465625
800 S. 1st Ave.,Coatesville,"['Tuesday', 'Thursday']",39.97357137,Coatesville Community Food Co-op,PA,19320,-75.81960129
212 MacDade Blvd.,Collingdale,['Thursday'],39.91593213,Collingdale Church of the Nazarene,PA,19023,-75.26770841
2646 Kensington Ave.,Philadelphia,['Monday'],39.98974845,Community Center at Visitation,PA,19125,-75.12620624
216 W. Somerset St.,Philadelphia,"['Monday', 'Tuesday', 'Wednesday', 'Thursday']",39.9929414,Congreso de Latinos Unidos,PA,19133,-75.13543575
75 Downey Dr.,Warminster,"['Monday', 'Wednesday', 'Friday']",40.18753661,"Coordinating Council of Health and Welfare, Inc.",PA,18974,-75.0871411
2117 N. 33rd St.,Philadelphia,['Tuesday'],39.98941245,Cornerstone Baptist Church,PA,19121,-75.18644725
2916 N. 6th St.,Philadelphia,['Thursday'],39.9959401,Crossroads Community Center,PA,19133,-75.1414984
1201 S. 47th St.,Philadelphia,['Friday'],39.9449127,Crusaders for Christ Church,PA,19143,-75.2123223
423 E. Lincoln Hwy.,Coatesville,"['Tuesday', 'Wednesday', 'Thursday']",39.9861247,CYWA,PA,19320,-75.8064526
1441 E. Hunting Park Ave.,Philadelphia,['Saturday'],40.01039106,Daily Bread at Holy Spirit United Methodist Church,PA,19124,-75.09857545
130 East 7th Street,Chester,['Wednesday'],39.8512769,Delaware County Family Service Center - Chester (Catholic Social Services),PA,19013,-75.3598696
2001 W. Lehigh Ave.,Philadelphia,"['Tuesday', 'Thursday']",39.99607575,Deliverance Evangelistic Church Emergency Food Pantry,PA,19132,-75.16478693
2527 W. Allegheny Ave.,Philadelphia,['Wednesday'],40.0043635,Devereux UMC,PA,19132,-75.1718887
6667 Chester Ave.,Philadelphia,"['Tuesday', 'Friday']",39.9276537,Divine Mercy Food Pantry,PA,19142,-75.2402279
1321 N. Lawrence St.,Philadelphia,"['Tuesday', 'Thursday', 'Saturday']",39.97162306,Drueding Center,PA,19122,-75.14362655
3252 N. Etting St.,Philadelphia,"['Wednesday', 'Saturday']",40.0055701,Drug Task Force Ministry,PA,19129,-75.1740927
2140 N. 33rd St.,Philadelphia,['Monday'],39.98933406,East Park Revitalization Alliance Food Pantry Location 1,PA,19121,-75.18701822
3209 W. Clifford St.,Philadelphia,['Thursday'],39.98327586,East Park Revitalization Alliance Food Pantry Location 2,PA,19121,-75.18686912
8325 Lindbergh Blvd.,Philadelphia,"['Monday', 'Tuesday', 'Wednesday']",39.9025558,Eastwick UMC Mission House,PA,19153,-75.2467187
6006 W. Girard Ave.,Philadelphia,"['Tuesday', 'Wednesday', 'Thursday']",39.96983892,ECS St. Barnabas,PA,19151,-75.23965792
1720 N. 22nd St.,Philadelphia,['Saturday'],39.98076945,EIBC- Emmanuel Institutional Baptist Church,PA,19121,-75.17091345
4244 Old York Rd.,Philadelphia,['Tuesday'],40.01734576,El Shaddai Baptist Church,PA,19140,-75.14728855
9 S. Bryn Mawr Ave.,Bryn Mawr,"['Tuesday', 'Thursday']",40.0203235,ElderNet's Ada Mutch Community Resource Center,PA,19010,-75.31773562
1700 Woodbourne Rd.,Levittown,"['Monday', 'Wednesday', 'Friday', 'Saturday']",40.15667,Emergency Relief Association of Lower Bucks County c/o United Christian Church,PA,19057,-74.8623992
100 S. Main St.,Hatfield,"['Tuesday', 'Wednesday']",40.27861265,Emmanuel E. C. Church Food Cupboard,PA,19440,-75.298359
2346 N. 17th St.,Philadelphia,['Thursday'],39.98921814,Emmanuel United Methodist Church Food Pantry,PA,19132,-75.16064398
2466 N. Opal St.,Philadelphia,"['Sunday', 'Wednesday']",39.99149951,Endtime Church of Jesus Christ,PA,19132,-75.16442216
246 W. Coulter St.,Philadelphia,"['Monday', 'Tuesday', 'Wednesday', 'Thursday']",40.02809245,Enon Tabernacle Baptist Church Helping Hands Pantry,PA,19144,-75.17563432
2001 S. 65th St.,Philadelphia,['Saturday'],39.92765983,Eternal Life Missionary Baptist Church,PA,19142,-75.23694133
5701 Grays Ave.,Philadelphia,['Thursday'],39.93172016,Ezekial Baptist,PA,19143,-75.22001868
1926 Margaret St.,Philadelphia,"['Tuesday', 'Wednesday', 'Thursday']",40.0129717,Faith Assembly of God,PA,19124,-75.0777968
1515 Wistar Rd.,Fairless Hills,"['Sunday', 'Tuesday', 'Wednesday']",40.166101,Faith Baptist Christian Academy,PA,19030,-74.8684879
108 E. Price St.,Philadelphia,['Thursday'],40.0377794,Faith Community Development Corporation,PA,19144,-75.1739898
5618 Kingsessing Ave.,Philadelphia,['Tuesday'],39.93611,Faith Temple Pentecostal Church,PA,19143,-75.224798
3416 W. Allegheny Ave.,Philadelphia,['Wednesday'],40.00570336,Faithful Temple Evangelistic Deliverance Church,PA,19132,-75.18542164
2501 Kensington Ave.,Philadelphia,['Saturday'],39.988177,"Family Feeding Family, Inc.",PA,19125,-75.12831
2059 E. Chelten Ave.,Philadelphia,"['Monday', 'Tuesday', 'Wednesday', 'Thursday', 'Friday']",40.05186986,"Family Support Circle, Inc. Food Pantry",PA,19138,-75.15407857
3040 Germantown Ave.,Philadelphia,['Friday'],39.9986705,Father's House of Prayer Mission Baptist Church Food Pantry,PA,19133,-75.1474834
2915 Street Rd.,Bensalem,"['Tuesday', 'Thursday']",40.1389699,Fatima Outreach Center - Martha's Choice Market Place,PA,19020,-74.9872122
6601 Elmwood Ave.,Philadelphia,['Friday'],39.92117341,FAWN at Tilden Middle School,PA,19142,-75.23162818
3101 Tyson Ave.,Philadelphia,"['Tuesday', 'Wednesday', 'Friday', 'Saturday']",40.0372483,Feast of Justice,PA,19149,-75.0528417
2005 N. 61st St.,Philadelphia,"['Sunday', 'Saturday']",39.9754726,Feed The Needy Association,PA,19151,-75.2417463
3314 Germantown Avenue,Philadelphia,['Wednesday'],40.0032324,Fellowship Greater Jehovah Baptist Church,PA,19140,-75.1492216
555 W. Annsbury St.,Philadelphia,['Saturday'],40.0206729,Feltonville Dream Center/ Master Builders Church,PA,19141,-75.13552824
4159 W. Girard Ave.,Philadelphia,['Monday'],39.9740871,First African Presbyterian Church,PA,19104,-75.2063459
201 Mulberry St.,Bristol,"['Tuesday', 'Wednesday', 'Thursday']",40.096488,First United Methodist Church of Bristol,PA,19007,-74.854956
350 W. State St.,Media,"['Thursday', 'Saturday']",39.91848987,First United Methodist Church of Media,PA,19063,-75.39402503
5500 Tabor Ave.,Philadelphia,['Friday'],40.035469,Food with Love/Iglesia Cristiana Avivamiento,PA,19120,-75.104708
6100 W. Columbia Ave.,Philadelphia,['Tuesday'],39.980962,Freedom Development Corporation,PA,19151,-75.242936
1620 S. 58th St.,Philadelphia,['Wednesday'],39.93855317,Freedom Worship Center,PA,19143,-75.23202633
4500 W. Lancaster Ave.,Philadelphia,['Saturday'],39.969723,Fresh Start Resource Services,PA,19131,-75.213125
1215 W. Ruscomb St.,Philadelphia,['Thursday'],40.02886014,Friendly Baptist Church,PA,19141,-75.14412243
800 W. Marshall St.,Norristown,"['Tuesday', 'Saturday']",40.121608,Friends Helping Friends (Haws Avenue United Methodist Church),PA,19401,-75.351776
175 Green Ln.,Philadelphia,"['Monday', 'Friday']",40.028719,Friends in Supplying Help (North Light Community Center),PA,19127,-75.2243475
701 N. 8th St.,Philadelphia,['Tuesday'],39.9646196,Friends Neighborhood Guild,PA,19123,-75.1510529
1201 S. 51st St.,Philadelphia,['Monday'],39.942075,Friends of the Kingsessing Library,PA,19143,-75.2182486
711 Spring Garden St.,Philadelphia,"['Monday', 'Tuesday', 'Wednesday', 'Thursday', 'Friday']",39.96130643,Friends Rehabilitation Program Pantry - Guild East,PA,19123,-75.15047646
1221 Fairmount Ave.,Philadelphia,['Tuesday'],39.96711015,Friends Rehabilitation Program: Guild House West,PA,19123,-75.15747487
1220 Lindley Ave.,Philadelphia,['Wednesday'],40.03006432,Friends Rehabilitation Program: The Lindley,PA,19141,-75.14379159
2812 N. Front St.,Philadelphia,['Saturday'],39.9929224,Front Street Community Church Food Pantry/ God's Storehouse,PA,19133,-75.1306414
2229 N. Cleveland St.,Philadelphia,"['Tuesday', 'Wednesday', 'Thursday']",39.987674,Genesis Ministries It's (Not Your Fault),PA,19132,-75.16296229
35 W. Chelten Ave.,Philadelphia,"['Sunday', 'Monday', 'Tuesday', 'Wednesday', 'Thursday', 'Friday', 'Saturday']",40.03536095,Germantown Avenue Crisis Ministry,PA,19144,-75.17573172
200 E. Cliveden St.,Philadelphia,['Thursday'],40.0494455,Germantown SDA Church,PA,19119,-75.179679
2159 N. 28th St.,Philadelphia,['Wednesday'],39.98850341,Gibson Temple Baptist Church/Blessed to be a Blessing,PA,19121,-75.17866004
8000 Lyons Ave.,Philadelphia,['Open:'],39.900634,Gift of God Resources,PA,19153,-75.244525
6101 Limekiln Pike,Philadelphia,"['Monday', 'Tuesday', 'Wednesday', 'Friday']",40.0466471,Giving of Self Partnership,PA,19141,-75.1488211
51 E. 9th St.,Chester,['Open:'],39.85132882,God's House of Prayer & Repair,PA,19013,-75.36385727
6148-50 Lansdowne Ave.,Philadelphia,['Wednesday'],39.9754426,Good Samaritan Baptist Church,PA,19151,-75.2434365
212 W. Lancaster Ave.,Paoli,['Thursday'],40.04156088,Good Samaritan Food Closet,PA,19301,-75.49153718
29 W. Johnson St.,Philadelphia,"['Monday', 'Tuesday', 'Wednesday', 'Thursday', 'Friday']",40.0456245,Grace Community Christian Center,PA,19144,-75.1829449
248 Church St.,Phoenixville,['Wednesday'],40.13265063,Grace Crossing,PA,19460,-75.51701878
3529 Haverford Ave.,Philadelphia,"['Wednesday', 'Thursday']",39.9639354,Grace Evangelical Lutheran Church,PA,19104,-75.19427397
1509 S. 52nd Street,Philadelphia,['Wednesday'],39.9392192,Grace Tabernacle Christian Church,PA,19143,-75.2169273
7101 N. 20th St.,Philadelphia,['Tuesday'],40.0626262,Grace UMC,PA,19138,-75.1510979
2227 N. Broad St.,Philadelphia,['Friday'],39.98674943,Grands As Parents Inc.,PA,19132,-75.15606633
4943 N. 5th St.,Philadelphia,['Tuesday'],40.0268581,Greater Philadelphia Asian Social Services (GPASS),PA,19120,-75.1323
1747 N. Wilton St.,Philadelphia,['Saturday'],39.98066626,Greater Promise Family of Love Deliverance Food Pantry,PA,19131,-75.22613695
5918 Hulmeville Rd.,Bensalem,"['Wednesday', 'Saturday']",40.109346,Greater Works Food Pantry,PA,19020,-74.936278
214 E. Haines St.,Philadelphia,['Friday'],40.041047,Haines Street Baptist Church,PA,19144,-75.1739526
814 E. Chelten Ave.,Philadelphia,"['Friday', 'Saturday']",40.0457402,Haitian Evangelical Baptist Church,PA,19138,-75.164152
5648 Chew Ave.,Philadelphia,['Wednesday'],40.04497075,Harambe Baptist Church,PA,19138,-75.16418767
4500 N. 10th St.,Philadelphia,['Saturday'],40.0209405,Harold O. Davis Memorial Baptist Church,PA,19140,-75.1419693
2284 Bristol Pk.,Bensalem,"['Tuesday', 'Wednesday', 'Thursday', 'Friday']",40.078278,Harvest Ministries Food Pantry,PA,19020,-74.949584
1333 Cowpath Rd.,Hatfield,"['Monday', 'Tuesday', 'Saturday']",40.273634,Hatfield Church of the Brethren Food Pantry,PA,19440,-75.2898897
2301 W. Oxford St.,Philadelphia,['Wednesday'],39.9794171,Haven Peniel UMC -Cafe Kichen,PA,19121,-75.1729757
1200 W. Carpenter St.,Philadelphia,['Saturday'],39.938544,Hawthorne Family Center,PA,19147,-75.162951
1901 Wynnewood Rd.,Philadelphia,['Wednesday'],39.983102,Heavens Grocery Store,PA,19151,-75.248263
1845 N 23rd Street,Philadelphia,"['Tuesday', 'Wednesday', 'Thursday']",39.9831913,Helen Brown Community Center at St. Elizabeth's,PA,19121,-75.1716659
525 S. Cobbs Creek Pkwy.,Philadelphia,['Saturday'],39.9539702,Helping Hands for the Hungry,PA,19143,-75.2483004
525 Cobbs Creek Pkwy.,Philadelphia,"['Monday', 'Wednesday', 'Saturday']",39.918046,Helping Hands for the Hungry/St. Cyprian Church,PA,19143,-75.246178
2114 S. 71st St.,Philadelphia,"['Tuesday', 'Wednesday', 'Thursday']",39.919911,Helping Others Resources Inc.,PA,19142,-75.243646
1513 N. Bouvier St.,Philadelphia,"['Wednesday', 'Saturday']",39.9769359,Herbert Arlene Food Pantry,PA,19121,-75.1638335
5305-15 Germantown Ave.,Philadelphia,['Tuesday'],40.03253548,Holsey Temple C.M.E. Church,PA,19144,-75.16941433
12265 Townsend Rd.,Philadelphia,"['Tuesday', 'Wednesday', 'Thursday']",40.1011746,Holy Redeemer Food Pantry of PA,PA,19154,-74.9858909
363 N. 60th St.,Philadelphia,"['Tuesday', 'Thursday']",39.9676667,Holy Temple Community Center,PA,19139,-75.239751
6132 Vine St.,Philadelphia,['Friday'],39.96688233,Homework Internet Communication for Urban People,PA,19139,-75.24294189
2327 W. Somerset St.,Philadelphia,['Sunday'],39.9977531,House of Prayer,PA,19132,-75.1699489
3760 N. Delhi St.,Philadelphia,"['Monday', 'Tuesday', 'Wednesday', 'Thursday']",40.0098004,Hunting Park NAC,PA,19140,-75.1436062
449 E. Locust Ave.,Philadelphia,"['Tuesday', 'Thursday']",40.03950696,"Innovative Treatment Alternatives, Inc.",PA,19144,-75.16767386
2086 Parkview Ave.,Abington,"['Monday', 'Tuesday', 'Wednesday', 'Thursday', 'Friday']",40.1354829,Inter-Faith Food Cupboard,PA,19001,-75.11400937
506 Haws Ave.,Norristown,"['Monday', 'Tuesday', 'Wednesday', 'Thursday', 'Saturday']",40.12070693,Interfaith Choice Pantry at Grace Lutheran,PA,19401,-75.35230527
1702 Fairmount Ave.,Philadelphia,['Saturday'],39.9669511,James Parker Memorial Center Food Pantry,PA,19130,-75.1656044
4807 Haverford Ave.,Philadelphia,['Saturday'],39.96261535,Jehovah Jireh Baptist Church,PA,19139,-75.21643189
328 Summit Ave.,Jenkintown,['Thursday'],40.09309441,Jenkintown Food Cupboard,PA,19046,-75.13038934
1030 Second Street Pk.,Southampton,"['Monday', 'Tuesday', 'Wednesday', 'Thursday', 'Friday']",40.175131,Jesus Focus Food Pantry,PA,18966,-75.043619
1150 Bristol Rd.,Southampton,"['Monday', 'Tuesday', 'Wednesday', 'Thursday', 'Friday']",40.18366899,Jesus Focus Ministry,PA,18966,-75.01927191
10100 Jamison Ave.,Philadelphia,"['Tuesday', 'Wednesday', 'Thursday', 'Friday']",40.100243,Jewish Federation of Greater Philadelphia's Mitzvah Food Program Northeast,PA,19116,-75.0218
2100 Arch St.,Philadelphia,['Thursday'],39.9556036,Jewish Federation of Greater Philadelphia's Mitzvah Food Project Center City,PA,19103,-75.1748071
8231 Old York Rd.,Elkins Park,"['Wednesday', 'Thursday']",40.08185465,Jewish Federation of Greater Philadelphia's Mitzvah Food Project Congregation Beth Sholom,PA,19027,-75.12620616
2909 Bristol Rd.,Bensalem,['Tuesday'],40.13436794,Jewish Federation of Greater Philadelphia's Mitzvah Food Project Congregation Tifereth Israel,PA,19020,-74.93743494
3200 B. St.,Philadelphia,"['Tuesday', 'Thursday']",39.998178,John B Stetson Charter School Food Bank/ Community Center,PA,19134,-75.125461
2229 W. Thompson St.,Philadelphia,"['Monday', 'Wednesday', 'Friday']",39.9751596,Johnson Care Center,PA,19121,-75.1729521
2500 W. Norris St.,Philadelphia,['Saturday'],39.98545,Johnson Homes Tenant Counsel Food Pantry,PA,19121,-75.174873
2440 N. 15th St.,Philadelphia,['Wednesday'],39.9906398,Jubilee Commandment Keepers Church,PA,19132,-75.1571674
920 E. Lincoln Hwy.,Coatesville,['Thursday'],39.98609289,Jubilee Evangelistic Ministries,PA,19320,-75.80608127
1901 Harrison St.,Philadelphia,['Tuesday'],40.016019,Keep the Faith Community Development,PA,19124,-75.0752275
136 W. Cedar St.,Kennett Square,"['Monday', 'Wednesday', 'Friday']",39.842372,Kennett Area Community Service,PA,19348,-75.71099736
6323 Frankford Ave.,Philadelphia,['Thursday'],40.02778964,Kingdom Life Christian Center,PA,19135,-75.05945807
8500 Pickering St.,Philadelphia,"['Thursday', 'Friday']",40.081737,Kitchen of Love,PA,19150,-75.17498
1665 N. Wilton St.,Philadelphia,"['Sunday', 'Tuesday', 'Wednesday', 'Thursday', 'Saturday']",39.97959259,Lacey's Community Care,PA,19131,-75.22680986
499 E. Walnut St.,North Wales,"['Monday', 'Tuesday', 'Wednesday', 'Thursday', 'Friday', 'Saturday']",40.2154994,Lamb Foundation- Cornucopia Cupboard,PA,19454,-75.2762207
300 S. York Rd.,Hatboro,"['Monday', 'Tuesday', 'Thursday']",40.1731549,Lehman Memorial Church (Fish and Loaves),PA,19040,-75.10896863
840 Trenton Rd.,Fairless Hills,"['Monday', 'Wednesday']",40.18416599,Lester Bahrt Food Pantry,PA,19030,-74.83776033
1701 N. Woodstock St.,Philadelphia,['Wednesday'],39.980108,Liberty House Food Pantry,PA,19121,-75.167941
9554 Bustleton Ave.,Philadelphia,"['Monday', 'Saturday']",40.08685094,Lifeway Baptist Church,PA,19115,-75.03611224
1521 W. Norris St.,Philadelphia,"['Tuesday', 'Friday']",39.9836907,Little Africa Plus Community Outreach,PA,19121,-75.1593397
1520-28 Belfield Ave.,Philadelphia,['Saturday'],40.02565631,Living Vine Apostolic Faith Church,PA,19141,-75.15028545
7501 Brookhaven Rd.,Philadelphia,['Saturday'],39.976704,Living Water Baptist Church,PA,19151,-75.266621
6250 Loretto Ave.,Philadelphia,['Thursday'],40.0388352,Living Waters United Church of Christ,PA,19111,-75.0805627
7916 Frankford Avenue,Philadelphia,['Thursday'],40.041221,Living Word Church - Frankford,PA,19136,-75.0294579
703 Lincoln Ave.,Prospect Park,"['Tuesday', 'Thursday']",39.882688,Loaves & Fishes Food Pantry,PA,19076,-75.306062
4201 Powelton Ave.,Philadelphia,['Friday'],39.9591556,Lombard Central Presbyterian Church,PA,19104,-75.2066385
1100 E. Chelten Ave.,Philadelphia,"['Monday', 'Tuesday', 'Wednesday', 'Thursday', 'Friday']",40.0496987,Lonnie Young Recreation Center,PA,19138,-75.1602193
2110 Chestnut St,Philadelphia,['Wednesday'],39.9520754,Lutheran Church of the Holy Communion,PA,19103,-75.17605984
1340 Frankford Ave.,Philadelphia,"['Monday', 'Tuesday', 'Wednesday', 'Thursday', 'Friday']",39.97115719,Lutheran Settlement House Senior Center,PA,19125,-75.13430838
1340 W. Parrish St.,Philadelphia,"['Sunday', 'Monday', 'Tuesday', 'Wednesday', 'Thursday', 'Friday', 'Saturday']",39.96875732,Macedonia Mission Center,PA,19123,-75.15939406
6200 Dicks Ave.,Philadelphia,['Wednesday'],39.922508,Manna,PA,19142,-75.223604
606 E. Main St.,Lansdale,"['Monday', 'Tuesday', 'Wednesday', 'Thursday', 'Friday']",40.23541357,Manna's Market,PA,19446,-75.27355502
631 N. 39th St.,Philadelphia,['Friday'],39.964068,Mantua Haverford Community Center,PA,19104,-75.199701
3804 Mt. Vernon St.,Philadelphia,"['Monday', 'Tuesday', 'Wednesday', 'Thursday', 'Friday']",39.96391696,Mantua Scattered Site Tentant Council,PA,19104,-75.19774483
352 E. Johnson Hwy.,Norristown,"['Monday', 'Wednesday', 'Thursday', 'Friday']",40.12771197,Martha's Choice Marketplace of Catholic Social Services,PA,19401,-75.32176924
100 Levittown Pkwy.,Levittown,"['Monday', 'Wednesday', 'Friday']",40.157869,Mary's Cupboard,PA,19054,-74.830328
7401 Limekiln Pk.,Philadelphia,['Saturday'],40.06756865,Masjidullah Sadaqah Emergency Food Cupboard,PA,19138,-75.15841895
1348 Bainbridge St.,Philadelphia,"['Monday', 'Wednesday', 'Friday']",39.94260339,Mazzoni Center,PA,19147,-75.164887
4511 Walnut St.,Philadelphia,['Wednesday'],39.95535069,Mercy Douglass Residents,PA,19139,-75.21189829
3500 Baring St.,Philadelphia,['Friday'],39.961172,Metropolitan Baptist Church,PA,19104,-75.192812
2025 E. Atlantic St.,Philadelphia,"['Tuesday', 'Thursday']",39.9979151,Mission of St. Joan of Arc,PA,19134,-75.1026623
345 Montgomery Ave,Bala Cynwyd,['Thursday'],40.00542812,Mitzvah Food Project at The Barbara and Harvey Brodsky Enrichment Center of JFCS,PA,19004,-75.24279914
4355 Paul St.,Philadelphia,"['Sunday', 'Tuesday']",40.01113306,Mizpah SDA Church,PA,19124,-75.08654139
353 Johnson Hwy.,Norristown,"['Monday', 'Wednesday', 'Thursday', 'Friday']",40.13335337,Montgomery County Family Service Center (Catholic Social Services),PA,19401,-75.33073912
2259 N. 5th St.,Philadelphia,['Saturday'],39.9856944,Moorish Science Temple of America,PA,19133,-75.141452
1756 N. 25th St.,Philadelphia,['Wednesday'],39.9823895,Morris Brown AME Church,PA,19121,-75.1755991
2701 N. 12th St.,Philadelphia,['Thursday'],39.9936022,Morris Chapel,PA,19133,-75.1505977
771 N. Pennsylvania Ave.,Morrisville,['Wednesday'],40.21662846,Morrisville Presbyterian Church,PA,19067,-74.7861518
5732 Race St.,Philadelphia,"['Wednesday', 'Saturday']",39.964312,Mount Carmel Baptist Church,PA,19139,-75.2354909
2052 S. 61st St.,Philadelphia,"['Wednesday', 'Saturday']",39.93027406,Mountain of Fire and Miracles Ministries,PA,19142,-75.23120573
6401 Ogontz Ave.,Philadelphia,"['Monday', 'Tuesday', 'Wednesday', 'Thursday', 'Friday', 'Saturday']",40.051692,Mt. Airy Church Of God in Christ Food & Clothing Ministry,PA,19126,-75.150019
1469 N. Broad St.,Philadelphia,['Tuesday'],39.9756442,Mt. Olive Holy Temple Church,PA,19122,-75.1582177
1411 S. 50th St.,Philadelphia,['Wednesday'],39.93971213,Mt. Zion Baptist Church,PA,19143,-75.21340675
701 Felton Ave.,Sharon Hill,['Saturday'],39.900718,Mt. Zion C.M.E.,PA,19079,-75.270528
4110 Haverford Ave.,Philadelphia,"['Sunday', 'Wednesday']",39.9623997,Mt. Zion Holy Church,PA,19104,-75.2061021
5115 Master St.,Philadelphia,['Saturday'],39.97450986,Mt. Zion Pentecostal Church,PA,19131,-75.22460214
1501 N. 20th St.,Philadelphia,['Wednesday'],39.9772032,Mt. Zion Pentecostal Church of God in Christ,PA,19121,-75.1677878
1530-33 N. 11th. Street,Philadelphia,['Monday'],39.97565745,Mt. Zion UMC,PA,19122,-75.15318802
818 Clifton Ave.,Sharon Hill,['Thursday'],39.90014516,Neighbor to Neighbor CDC,PA,19079,-75.26925191
3900 Germantown Avenue,Philadelphia,"['Sunday', 'Monday', 'Tuesday', 'Wednesday', 'Thursday', 'Friday', 'Saturday']",40.012635,Neighborhood Action Bureau,PA,19140,-75.152311
502 E. Haines St.,Philadelphia,['Thursday'],40.0443205,New Beginnings Pentecostal Church,PA,19144,-75.1703962
1415 S. 23rd St.,Philadelphia,['Friday'],39.934258,New Bethany Baptist Church,PA,19146,-75.182555
22 E. Butler Ave.,New Britain,"['Monday', 'Wednesday']",40.29882685,New Britain Food Larder,PA,18901,-75.18150046
6618 Wyncote Ave.,Philadelphia,['Thursday'],40.0555542,New Era Baptist Church,PA,19138,-75.1540156
1705 N. 7th St.,Philadelphia,['Thursday'],39.9775503,New Greater Straightway Baptist Church Food Pantry,PA,19122,-75.1465943
204-206 E. Oak St.,Norristown,['Tuesday'],40.1174745,New Hope Baptist Church,PA,19401,-75.33797255
2011 W. Norris St.,Philadelphia,"['Monday', 'Tuesday', 'Wednesday', 'Thursday', 'Friday']",39.9846092,New Jerusalem,PA,19121,-75.1668722
14 E. Clapier St.,Philadelphia,['Tuesday'],40.0292217,New Jerusalem Church,PA,19144,-75.1628361
467 N. Easton Rd.,Glenside,"['Monday', 'Tuesday', 'Thursday']",40.10812663,New Life Presbyterian Church,PA,19038,-75.14605161
3224-26 W. York St.,Philadelphia,"['Monday', 'Wednesday', 'Friday']",39.993121,New Pond/Upon This Rock,PA,19132,-75.185267
4300 Germantown Ave.,Philadelphia,['Thursday'],40.0194688,Nicetown CDC,PA,19140,-75.1560664
1230 Norton Ave.,Bristol,"['Monday', 'Tuesday', 'Wednesday', 'Thursday']",40.11898284,No Longer Bound Prevention and Training Inc,PA,19007,-74.84902968
1915 N. 11th St.,Philadelphia,['Thursday'],39.981598,Norris Homes Food Pantry,PA,19122,-75.15168486
1105 S. 27th St.,Philadelphia,['Saturday'],39.9393939,North East Group Greys Ferry Residents Assn.,PA,19146,-75.18824442
212 Girard Ave.,North Hills,['Thursday'],40.11652968,North Hills Food Cupboard,PA,19038,-75.1724875
2419-23 N. 27th St.,Philadelphia,"['Monday', 'Wednesday', 'Friday', 'Saturday']",39.99256275,North Penn Baptist Church,PA,19132,-75.1763205
1510-14 W. Oxford St.,Philadelphia,['Wednesday'],39.97754002,North Philadelphia SDA Church,PA,19121,-75.16087547
7340 Jackson St.,Philadelphia,"['Wednesday', 'Friday']",40.0329768,Northeast Philadelphia Family Service Center (Catholic Social Services),PA,19136,-75.0357751
714 W. Main St.,Parkesburg,"['Tuesday', 'Wednesday']",39.95953474,Octorara Area Food Cupboard,PA,19365,-75.92799843
151 N. 4th St.,Philadelphia,['Saturday'],39.95386125,Old First Outreach Ministries,PA,19106,-75.1460395
2532 N. Broad St.,Philadelphia,['Tuesday'],39.99139845,One Day At A Time (ODAAT),PA,19132,-75.15526316
350 Main St.,Royersford,['Thursday'],40.1846492,Open Door Ministry (Church of the Nazarene),PA,19468,-75.53968813
35 N. 3rd St.,Oxford,"['Monday', 'Tuesday', 'Thursday']",39.78556989,Oxford Area Neighborhood Services Center,PA,19363,-75.97864451
6150 Algon Ave.,Philadelphia,"['Monday', 'Tuesday']",40.04095434,Oxford Village Food Cupboard,PA,19111,-75.08865692
4704 Woodland Ave.,Philadelphia,"['Wednesday', 'Saturday']",39.9429587,Paradise Emmanuel Tabernacle Church,PA,19143,-75.2108709
1600 Harrison St.,Philadelphia,"['Tuesday', 'Thursday']",40.018998,Pathway Evangelistic Church,PA,19124,-75.081428
701 Green St.,Norristown,"['Sunday', 'Monday', 'Tuesday', 'Wednesday', 'Thursday', 'Friday', 'Saturday']",40.117202,Patrician Society Emergency Food Cupboard,PA,19401,-75.339008
2515 W. Jefferson St.,Philadelphia,['Wednesday'],39.978397,Peniel Baptist Church Food Cupboard,PA,19121,-75.1768438
800 W. Chestnut St.,Perkasie,"['Monday', 'Wednesday', 'Thursday', 'Friday', 'Saturday']",40.37432,Pennridge FISH,PA,18944,-75.298328
3025 N. 5th St.,Philadelphia,"['Monday', 'Tuesday', 'Friday']",39.9970739,Pentecostal Church Of God,PA,19133,-75.13900088
5347 Pulaski Ave,Philadelphia,"['Tuesday', 'Saturday']",40.02742557,Pentecostal Faith Assembly Chruch,PA,19144,-75.175224
325 N. 39th St.,Philadelphia,['Saturday'],39.96029045,People's Emergency Center Food Cupboard,PA,19104,-75.19983745
401 E. Girard Ave.,Philadelphia,['Open:'],39.970434,Philadelphia Brotherhood Rescue Mission,PA,19125,-75.1303925
2990 Street Rd.,Bensalem,"['Monday', 'Tuesday', 'Wednesday', 'Thursday', 'Friday']",40.1389699,Philadelphia Christian Center,PA,19020,-74.9872122
23 S. 38th St.,Philadelphia,['Monday'],39.95539329,Philadelphia Episcopal Cathedral,PA,19104,-75.19814843
257 Church St.,Phoenixville,"['Monday', 'Tuesday', 'Wednesday', 'Thursday', 'Friday']",40.13279657,Phoenixville Area Community Services,PA,19460,-75.51721957
2251 N. 54th St.,Philadelphia,['Wednesday'],39.99010606,Pinn Memorial Baptist Church Drive to End Hunger Ministry,PA,19131,-75.23323636
57 N. Franklin St.,Pottstown,"['Tuesday', 'Wednesday', 'Thursday', 'Friday']",40.24632175,Pottstown Cluster of Religious Communities,PA,19464,-75.64411238
3610 N. 15th St.,Philadelphia,['Monday'],40.00819282,Praise the Living God Holiness Church,PA,19140,-75.15326518
1140-47 S. 26th St.,Philadelphia,['Monday'],39.93889027,Progressive Worship Center,PA,19146,-75.18672935
1950 W. Rockland St.,Philadelphia,"['Tuesday', 'Wednesday']",40.0285899,Provision of Grace World Mission Church,PA,19141,-75.1560703
455 Trumbauersville Rd.,Quakertown,"['Tuesday', 'Thursday']",40.42457731,Quakertown First Church of the Brethren,PA,18951,-75.36189538
101. N. 3rd St.,Quakertown,"['Monday', 'Tuesday', 'Wednesday', 'Thursday', 'Friday']",40.44224,Quakertown Food Pantry,PA,18951,-75.337034
3817 Market St.,Philadelphia,['Wednesday'],39.9570497,Ralston/Mercy-Douglass House,PA,19104,-75.1993332
2339 N.31st St.,Philadelphia,['Wednesday'],39.9924553,Redeem Baptist Church,PA,19132,-75.1827304
5617 Walnut St.,Philadelphia,['Saturday'],39.95796936,Redeeming Love Worship Center,PA,19139,-75.23438929
1100 Oak Lane Ave.,Philadelphia,['Tuesday'],40.054837,Refuge Evangelical Baptist Church,PA,19126,-75.136416
7708-10 Ogontz Ave.,Philadelphia,['Wednesday'],40.0712148,Remnant Church of God,PA,19150,-75.1577932
5401 Lansdowne Ave.,Philadelphia,['Tuesday'],39.977132,Resurrection Baptist Church,PA,19131,-75.230029
1916 E. Venango St.,Philadelphia,"['Sunday', 'Monday', 'Tuesday', 'Wednesday', 'Thursday', 'Friday', 'Saturday']",39.9995703,Richard & Friends United in the Community,PA,19134,-75.1029881
701 E. Cornwall St.,Philadelphia,"['Sunday', 'Wednesday', 'Thursday']",39.999269,River of Life Philadelphia,PA,19134,-75.116748
8230 Ridge Ave.,Philadelphia,['Thursday'],40.05899782,Roxborough Presbyterian Church,PA,19128,-75.23773149
2509 N. 30th St.,Philadelphia,['Tuesday'],39.9943322,Safe Haven Community Food Bank,PA,19132,-75.1805461
5830 Rising Sun Ave.,Philadelphia,['Thursday'],40.04359229,Salvation Army - Citadel,PA,19120,-75.10347805
22 N. 9th St.,Darby,"['Tuesday', 'Thursday', 'Friday']",39.922613,Salvation Army - Darby,PA,19023,-75.2560236
4200 Wissahickon Ave.,Philadelphia,"['Monday', 'Tuesday', 'Wednesday', 'Thursday', 'Friday']",40.0117408,Salvation Army - KROC,PA,19129,-75.1693326
215 Appletree Dr.,Levittown,"['Monday', 'Tuesday', 'Thursday']",40.15891464,Salvation Army - Levittown Corps,PA,19055,-74.83963754
1340 Brown St.,Philadelphia,"['Monday', 'Tuesday', 'Wednesday', 'Thursday']",39.967753,Salvation Army - Temple Corps,PA,19123,-75.159034
533 Swede St.,Norristown,['Tuesday'],40.11664375,Salvation Army Norristown,PA,19401,-75.3434892
1920 E. Allegheny Ave.,Philadelphia,['Tuesday'],39.99487031,Salvation Army Pioneer Corps,PA,19134,-75.11207649
3150 N. Mascher St.,Philadelphia,"['Tuesday', 'Thursday']",39.99855447,Salvation Army Tabernacle,PA,19133,-75.13141039
101 E. Market St.,West Chester,"['Monday', 'Tuesday', 'Wednesday', 'Thursday', 'Friday']",39.9603421,Salvation Army West Chester,PA,19380,-75.6032324
5923 Walnut St.,Philadelphia,['Saturday'],39.9591623,Sanctuary Church Of The Open Door,PA,19139,-75.2406274
4035 Parrish St.,Philadelphia,['Friday'],39.96835982,Sarah Allen Senior Community Homes,PA,19104,-75.20481382
912-18 N. 41st St.,Philadelphia,['Saturday'],39.97099322,Second Antioch Baptist Church Food Cupboard,PA,19104,-75.20581112
1801 Meadow St.,Philadelphia,"['Monday', 'Wednesday', 'Friday']",40.013654,Second Baptist Church of Frankford,PA,19124,-75.0800478
1301 W. Ruscomb Street,Philadelphia,"['Wednesday', 'Friday']",40.028957,Second Macedonia Baptist Church,PA,19141,-75.144856
1601 Limekiln Pk.,Dresher,"['Tuesday', 'Wednesday', 'Friday']",40.128609,Seeds of Hope Community Food Pantry,PA,19025,-75.1670203
5213 Germantown Ave.,Philadelphia,['Tuesday'],40.031499,Servant of Christ United Methodist Church,PA,19144,-75.166516
510 Somerton Ave.,Philadelphia,"['Monday', 'Wednesday', 'Friday']",40.1225393,Somerton Interfaith Food Bank,PA,19116,-75.019088
640 Race St.,Bristol,"['Tuesday', 'Wednesday', 'Thursday']",40.100677,"Soulful Blessings, Second Baptist Church of Bristol",PA,19007,-74.86073058
1941 Christian St.,Philadelphia,"['Tuesday', 'Thursday']",39.941299,South Philadelphia Family Service Center (Catholic Social Services),PA,19146,-75.1754569
1444 Point Breeze Ave.,Philadelphia,"['Tuesday', 'Thursday']",39.9336068,South Philadelphia H.O.M.E.S. Inc.,PA,19146,-75.1805696
6214 Grays Ave.,Philadelphia,"['Monday', 'Friday']",39.9256606,Southwest Philadelphia Family Service Center (Catholic Social Services),PA,19142,-75.2282861
145 Chestnut St.,Spring City,['Thursday'],40.17644074,Spring-Ford Project Outreach Spring City Branch,PA,19475,-75.54637987
233 W. Gay St.,West Chester,"['Monday', 'Tuesday', 'Wednesday', 'Thursday', 'Friday']",39.956803,St. Agnes Outreach Services,PA,19380,-75.613747
2607 E. Cumberland St.,Philadelphia,"['Sunday', 'Monday', 'Tuesday', 'Wednesday', 'Thursday', 'Friday', 'Saturday']",39.97604211,St. Anne's Senior Center,PA,19125,-75.11934097
1814 Wharton Street,Philadelphia,['Saturday'],39.9348512,St. Barnabas Bethsaida U.M.C,PA,19146,-75.17448894
5421 Germantown Ave.,Philadelphia,['Friday'],40.033801,St. Barnabas Food Pantry (St. Luke's Episcopal),PA,19144,-75.1709901
1935 Medary Ave.,Philadelphia,"['Monday', 'Friday', 'Saturday']",40.0505239,St. Benedict's,PA,19138,-75.1517724
315 W. Edwards St.,Chester,['Tuesday'],39.8385257,St. Daniel's UMC Feeding Ministry,PA,19013,-75.3795915
2917 Dickinson St.,Philadelphia,"['Tuesday', 'Wednesday', 'Friday']",39.9352091,St. Gabriel Food Cupboard,PA,19146,-75.1932083
6161 N. 5th St.,Philadelphia,"['Tuesday', 'Wednesday', 'Thursday']",40.04498808,St. Helena Food Bank,PA,19120,-75.1285269
636 N. 43rd Street,Philadelphia,['Tuesday'],39.963618,St. Ignatius Of Loyola Outreach,PA,19104,-75.209329
603 W. Broad St,Quakertown,"['Tuesday', 'Saturday']",40.44194892,St. Isadore Food Pantry,PA,18951,-75.34281938
199 E. Tabor Rd.,Philadelphia,"['Sunday', 'Monday', 'Tuesday', 'Wednesday', 'Thursday', 'Friday']",40.0316889,St. James United Methodist Church,PA,19120,-75.1205412
224 N. 54th St.,Philadelphia,['Saturday'],39.96409907,St. Joseph Baptist Church,PA,19139,-75.22799079
1408 W. 2nd St.,Chester,"['Tuesday', 'Wednesday']",39.8385748,St. Katharine Drexel Food Pantry and Clothing Cupboard,PA,19013,-75.3756419
1625 Locust St.,Philadelphia,"['Tuesday', 'Wednesday', 'Thursday', 'Friday']",39.9489241,St. Mark's Food Cupboard,PA,19103,-75.16831736
1420 W. Chelten Ave.,Philadelphia,['Tuesday'],40.03289,St. Mark's Lutheran Church Emergency Food Pantry,PA,19126,-75.177738
2340 W. Lehigh Ave.,Philadelphia,"['Tuesday', 'Wednesday', 'Thursday']",39.9956786,St. Martin de Porres,PA,19132,-75.1698633
634 E. Chelten Ave.,Philadelphia,['Wednesday'],40.0436229,St. Matthews First Baptist Church,PA,19144,-75.1663647
2139 E. Cumberland Street,Philadelphia,['Thursday'],39.982317,St. Michael Church --Good Samaritan Food Pantry,PA,19125,-75.124883
2039 Manton St.,Philadelphia,['Saturday'],39.93709294,St. Paul Chapel Baptist Church,PA,19146,-75.17778678
1009 W. 3rd St.,Chester,"['Tuesday', 'Friday']",39.8413582,St. Paul CME Church,PA,19013,-75.3724126
5900 North 5th Street,Philadelphia,"['Monday', 'Wednesday']",40.0414039,St. Paul's Evangelical Lutheran Church,PA,19120,-75.1299795
313 Pine St.,Philadelphia,['Saturday'],39.94315765,St. Peter's Food Cupboard,PA,19106,-75.14766593
121 Church St.,Phoenixville,"['Monday', 'Saturday']",40.13337533,St. Peter's Pantry,PA,19460,-75.51243327
109 E. Price Street,Philadelphia,"['Monday', 'Tuesday', 'Friday']",40.0380374,St. Vincent De Paul,PA,19144,-75.174422
7212 Keystone St.,Philadelphia,['Tuesday'],40.0272443,Star of Hope Baptist Church Community Food Cupboard,PA,19135,-75.0340979
819 Coates St.,Coatesville,['Friday'],39.98888343,Tabernacle Baptist Church,PA,19320,-75.80931277
5843 Spruce Street,Philadelphia,"['Tuesday', 'Thursday']",39.9565221,Tabernacle Lutheran Church,PA,19139,-75.239527
1301 N. 28th St.,Philadelphia,['Saturday'],39.976209,Take a Sistah to Lunch,PA,19121,-75.181341
2426 N. 2nd St.,Philadelphia,['Saturday'],39.9875958,Take A Sistah to Lunch #2,PA,19121,-75.13596974
1532 Sellers St.,Philadelphia,['Wednesday'],40.0141271,Temple of Faith Community Church,PA,19124,-75.0872479
1300 N.7th St.,Philadelphia,['Wednesday'],39.9719462,Temple Presbyterian Church,PA,19122,-75.1480708
240 State Rd.,West Grove,['Tuesday'],39.8112754,The Bridge,PA,19390,-75.8401107
324 Carpenter Ln.,Philadelphia,['Thursday'],40.043417,The Food Cupboard at Church of the Annunciation,PA,19119,-75.199071
505 N. York Rd.,Hatboro,"['Monday', 'Tuesday', 'Wednesday', 'Thursday']",40.18714578,The Food Pantry at St. John's Lutheran,PA,19040,-75.1036513
1716 N. 27th St.,Philadelphia,['Saturday'],39.98188,The House of the Good Shepard Food Pantry,PA,19121,-75.17886916
452 Penn St.,Pennsburg,"['Tuesday', 'Thursday', 'Friday']",40.39812659,The Open LInk,PA,18073,-75.49518343
3234 Potter St.,Philadelphia,['Wednesday'],39.9978594,The Simple Way,PA,19134,-75.1121793
1539 W. Courtland St.,Philadelphia,"['Tuesday', 'Wednesday', 'Thursday', 'Friday']",40.0232536,"The Word In Action International Ministries, Inc.",PA,19140,-75.1511235
360 N. Oak Ave.,Clifton Heights,"['Tuesday', 'Wednesday']",39.93145379,Trinity United Presbyterian Church,PA,19018,-75.30496659
5316 Rising Sun Ave.,Philadelphia,['Saturday'],40.0311808,Triumphant Faith International Worship Center,PA,19120,-75.1179619
4610 Devereaux St.,Philadelphia,"['Sunday', 'Thursday']",40.02019971,True Vine Community Center,PA,19135,-75.05642057
701 Morton Ave.,Chester,"['Tuesday', 'Thursday']",39.8535782,True Vine Food Center,PA,19013,-75.3533626
4666 N. 15th St.,Philadelphia,['Tuesday'],40.02423257,Truth Baptist Church,PA,19140,-75.1497728
2029 S. 8th St.,Philadelphia,"['Monday', 'Wednesday']",39.92300335,United Communities Southeast Philadelphia,PA,19148,-75.15798324
47 E. Haines St.,Philadelphia,"['Tuesday', 'Thursday']",40.03922113,United Methodist Neighbors,PA,19144,-75.17618504
4700 Wyalusing Ave.,Philadelphia,['Tuesday'],39.970384,United Ummah of Philly,PA,19139,-75.216677
5401 Tabor Rd.,Philadelphia,"['Monday', 'Wednesday', 'Friday']",40.031741,Universal Creighton Family Resource Food Pantry,PA,19120,-75.109057
4168 Poplar St.,Philadelphia,['Tuesday'],39.97263723,Universal Kingdom of God Church,PA,19104,-75.20762965
325 Main St.,Upland,['Wednesday'],39.8587903,Upland Baptist Food Bank,PA,19015,-75.3819139
7766 Wayne Ave.,Upper Darby,"['Monday', 'Tuesday', 'Thursday', 'Friday']",39.96335873,Upper Darby Food Bank,PA,19082,-75.27407954
191 Town Center Rd.,King of Prussia,['Tuesday'],40.09568144,Upper Merion Area Community Cupboard,PA,19406,-75.36871107
7236 Ogontz Ave.,Philadelphia,"['Monday', 'Tuesday', 'Wednesday', 'Friday']",40.0647396,Upper Room Missionary Baptist Church,PA,19138,-75.1551748
501 Graber Aly.,Red Hill,"['Tuesday', 'Friday']",40.376138,Valley Food Pantry,PA,18073,-75.483407
701 Rockland St.,Philadelphia,['Saturday'],40.02635,Victory Kingdom Fellowship Ministry,PA,19120,-75.136595
3415 N. 2nd St.,Philadelphia,['Tuesday'],40.0028328,Victory Outreach Christian Ministry Food Pantry,PA,19140,-75.1320708
2862 Germantown Ave.,Philadelphia,['Friday'],39.99558065,Warnock Village Food Pantry,PA,19133,-75.14733318
1016-18 South St.,Philadelphia,['Wednesday'],39.942799,Waters Memorial Community Center,PA,19147,-75.159279
2500 Cecil B. Moore Ave.,Philadelphia,['Saturday'],39.9807526,Wayland Temple Baptist Church,PA,19121,-75.1759317
4001 Conshohocken Ave.,Philadelphia,['Monday'],40.00187747,Well Done Community Resource/Park Towers,PA,19131,-75.21283763
431 S. Bolmar St.,West Chester,"['Tuesday', 'Wednesday', 'Thursday', 'Saturday']",39.95991617,West Chester Food Cupboard,PA,19382,-75.59138713
601 N. 46th St.,Philadelphia,"['Sunday', 'Wednesday']",39.962705,West Philadelphia SDA Church,PA,19139,-75.212964
1016 N. 41st St.,Philadelphia,"['Monday', 'Tuesday', 'Wednesday', 'Thursday', 'Friday']",39.97179598,West Philadelphia Senior Community Center,PA,19104,-75.20615459
1576 Fairview Ave.,Willow Grove,['Thursday'],40.13168812,Willow Grove SDA Church Food Pantry,PA,19090,-75.12398682
315 S. 60th St.,Philadelphia,['Saturday'],39.9462419,Word of Life Healing Ministry,PA,19143,-75.2440507
1300 W. Jefferson St.,Philadelphia,['Wednesday'],39.9750909,Yorktown CDC,PA,19122,-75.1568385
120 E. Street Rd.,Warminster,"['Tuesday', 'Thursday', 'Friday']",40.1857267,YWCA Bucks County-Aspen Grove,PA,18974,-75.0629209
1600 S. 21st St.,Philadelphia,"['Monday', 'Tuesday', 'Wednesday', 'Thursday', 'Friday']",39.931422,Zion AME Church,PA,19145,-75.18005
5301 Spruce St.,Philadelphia,['Tuesday'],39.9552341,Zion Hill Baptist Church,PA,19139,-75.2285437
2702 Ellsworth St.,Philadelphia,"['Wednesday', 'Saturday']",39.9394969,Zion Hill Memorial Baptist Church,PA,19146,-75.1886555